{
  "type": "FeatureCollection",
  "features": [
    {
      "type": "Feature",
      "properties": {
        "norad_id": 66718,
        "name": "FLOCK 4H-15",
        "group": "last-30-days",
        "lat": -46.744130263518606,
        "lon": 77.94573226331444,
        "alt_km": 520.0657751065673,
        "timestamp": "2025-12-24T09:46:29.714885+00:00",
        "meta_object_name": "FLOCK 4H-15",
        "meta_object_id": "2025-276BE",
        "meta_epoch": "2025-12-24T03:39:03.820320",
        "meta_mean_motion": 15.17119999,
        "meta_eccentricity": 0.0003081,
        "meta_inclination": 97.4417,
        "meta_ra_of_asc_node": 69.7099,
        "meta_arg_of_pericenter": 261.8302,
        "meta_mean_anomaly": 98.2581,
        "meta_ephemeris_type": 0,
        "meta_classification_type": "U",
        "meta_norad_cat_id": 66718,
        "meta_element_set_no": 999,
        "meta_rev_at_epoch": 385,
        "meta_bstar": 0.00052794,
        "meta_mean_motion_dot": 0.00010409,
        "meta_mean_motion_ddot": 0,
        "tle_line1": "1 66718U 25276BE  25358.15212755  .00010409  00000+0  52794-3 0  9994",
        "tle_line2": "2 66718  97.4417  69.7099 0003081 261.8302  98.2581 15.17119999  3857"
      },
      "geometry": {
        "type": "Point",
        "coordinates": [
          77.94573226331444,
          -46.744130263518606
        ]
      }
    },
    {
      "type": "Feature",
      "properties": {
        "norad_id": 66719,
        "name": "FLOCK 4H-16",
        "group": "last-30-days",
        "lat": -35.101623564296,
        "lon": 75.24344204638781,
        "alt_km": 534.0116239251556,
        "timestamp": "2025-12-24T09:46:29.714896+00:00",
        "meta_object_name": "FLOCK 4H-16",
        "meta_object_id": "2025-276BF",
        "meta_epoch": "2025-12-23T22:51:28.478880",
        "meta_mean_motion": 15.18016632,
        "meta_eccentricity": 0.0030777,
        "meta_inclination": 97.4432,
        "meta_ra_of_asc_node": 69.5238,
        "meta_arg_of_pericenter": 186.1197,
        "meta_mean_anomaly": 173.9666,
        "meta_ephemeris_type": 0,
        "meta_classification_type": "U",
        "meta_norad_cat_id": 66719,
        "meta_element_set_no": 999,
        "meta_rev_at_epoch": 382,
        "meta_bstar": 0.0066822,
        "meta_mean_motion_dot": 0.0013998,
        "meta_mean_motion_ddot": 0,
        "tle_line1": "1 66719U 25276BF  25357.95241295  .00139980  00000+0  66822-2 0  9995",
        "tle_line2": "2 66719  97.4432  69.5238 0030777 186.1197 173.9666 15.18016632  3824"
      },
      "geometry": {
        "type": "Point",
        "coordinates": [
          75.24344204638781,
          -35.101623564296
        ]
      }
    },
    {
      "type": "Feature",
      "properties": {
        "norad_id": 66720,
        "name": "FLOCK 4H-17",
        "group": "last-30-days",
        "lat": 37.17789484787993,
        "lon": 64.31431112033029,
        "alt_km": 510.52440196168027,
        "timestamp": "2025-12-24T09:46:29.714906+00:00",
        "meta_object_name": "FLOCK 4H-17",
        "meta_object_id": "2025-276BG",
        "meta_epoch": "2025-12-24T04:00:01.998720",
        "meta_mean_motion": 15.18060983,
        "meta_eccentricity": 0.000266,
        "meta_inclination": 97.444,
        "meta_ra_of_asc_node": 69.7687,
        "meta_arg_of_pericenter": 183.2931,
        "meta_mean_anomaly": 340.3157,
        "meta_ephemeris_type": 0,
        "meta_classification_type": "U",
        "meta_norad_cat_id": 66720,
        "meta_element_set_no": 999,
        "meta_rev_at_epoch": 130,
        "meta_bstar": 0.0025898,
        "meta_mean_motion_dot": 0.00053025,
        "meta_mean_motion_ddot": 0,
        "tle_line1": "1 66720U 25276BG  25358.16668980  .00053025  00000+0  25898-2 0  9998",
        "tle_line2": "2 66720  97.4440  69.7687 0002660 183.2931 340.3157 15.18060983  1303"
      },
      "geometry": {
        "type": "Point",
        "coordinates": [
          64.31431112033029,
          37.17789484787993
        ]
      }
    },
    {
      "type": "Feature",
      "properties": {
        "norad_id": 66721,
        "name": "FLOCK 4H-18",
        "group": "last-30-days",
        "lat": -43.65016514175615,
        "lon": 77.10525910846769,
        "alt_km": 519.8126296326582,
        "timestamp": "2025-12-24T09:46:29.714916+00:00",
        "meta_object_name": "FLOCK 4H-18",
        "meta_object_id": "2025-276BH",
        "meta_epoch": "2025-12-24T03:38:14.377056",
        "meta_mean_motion": 15.17155855,
        "meta_eccentricity": 0.0002522,
        "meta_inclination": 97.4378,
        "meta_ra_of_asc_node": 69.6952,
        "meta_arg_of_pericenter": 277.5097,
        "meta_mean_anomaly": 82.5849,
        "meta_ephemeris_type": 0,
        "meta_classification_type": "U",
        "meta_norad_cat_id": 66721,
        "meta_element_set_no": 999,
        "meta_rev_at_epoch": 385,
        "meta_bstar": 0.00049666,
        "meta_mean_motion_dot": 9.797e-05,
        "meta_mean_motion_ddot": 0,
        "tle_line1": "1 66721U 25276BH  25358.15155529  .00009797  00000+0  49666-3 0  9995",
        "tle_line2": "2 66721  97.4378  69.6952 0002522 277.5097  82.5849 15.17155855  3852"
      },
      "geometry": {
        "type": "Point",
        "coordinates": [
          77.10525910846769,
          -43.65016514175615
        ]
      }
    },
    {
      "type": "Feature",
      "properties": {
        "norad_id": 66722,
        "name": "FLOCK 4H-19",
        "group": "last-30-days",
        "lat": 53.34020238792076,
        "lon": 59.87900463505028,
        "alt_km": 506.267956690589,
        "timestamp": "2025-12-24T09:46:29.714926+00:00",
        "meta_object_name": "FLOCK 4H-19",
        "meta_object_id": "2025-276BJ",
        "meta_epoch": "2025-12-24T03:12:38.896128",
        "meta_mean_motion": 15.18260569,
        "meta_eccentricity": 0.0002505,
        "meta_inclination": 97.4387,
        "meta_ra_of_asc_node": 69.7204,
        "meta_arg_of_pericenter": 150.3882,
        "meta_mean_anomaly": 209.7494,
        "meta_ephemeris_type": 0,
        "meta_classification_type": "U",
        "meta_norad_cat_id": 66722,
        "meta_element_set_no": 999,
        "meta_rev_at_epoch": 314,
        "meta_bstar": 0.00070941,
        "meta_mean_motion_dot": 0.00014483,
        "meta_mean_motion_ddot": 0,
        "tle_line1": "1 66722U 25276BJ  25358.13378352  .00014483  00000+0  70941-3 0  9993",
        "tle_line2": "2 66722  97.4387  69.7204 0002505 150.3882 209.7494 15.18260569  3146"
      },
      "geometry": {
        "type": "Point",
        "coordinates": [
          59.87900463505028,
          53.34020238792076
        ]
      }
    },
    {
      "type": "Feature",
      "properties": {
        "norad_id": 66723,
        "name": "FLOCK 4H-20",
        "group": "last-30-days",
        "lat": 56.99776038625816,
        "lon": 58.39412970242353,
        "alt_km": 506.0632212037972,
        "timestamp": "2025-12-24T09:46:29.714939+00:00",
        "meta_object_name": "FLOCK 4H-20",
        "meta_object_id": "2025-276BK",
        "meta_epoch": "2025-12-24T03:11:40.354080",
        "meta_mean_motion": 15.18320859,
        "meta_eccentricity": 0.0002948,
        "meta_inclination": 97.4422,
        "meta_ra_of_asc_node": 69.7356,
        "meta_arg_of_pericenter": 165.8804,
        "meta_mean_anomaly": 194.2513,
        "meta_ephemeris_type": 0,
        "meta_classification_type": "U",
        "meta_norad_cat_id": 66723,
        "meta_element_set_no": 999,
        "meta_rev_at_epoch": 310,
        "meta_bstar": 0.00054084,
        "meta_mean_motion_dot": 0.0001104,
        "meta_mean_motion_ddot": 0,
        "tle_line1": "1 66723U 25276BK  25358.13310595  .00011040  00000+0  54084-3 0  9995",
        "tle_line2": "2 66723  97.4422  69.7356 0002948 165.8804 194.2513 15.18320859  3106"
      },
      "geometry": {
        "type": "Point",
        "coordinates": [
          58.39412970242353,
          56.99776038625816
        ]
      }
    },
    {
      "type": "Feature",
      "properties": {
        "norad_id": 66724,
        "name": "FLOCK 4H-21",
        "group": "last-30-days",
        "lat": 60.31663905355674,
        "lon": 56.74106301062234,
        "alt_km": 504.7379111251339,
        "timestamp": "2025-12-24T09:46:29.714951+00:00",
        "meta_object_name": "FLOCK 4H-21",
        "meta_object_id": "2025-276BL",
        "meta_epoch": "2025-12-24T03:10:48.400032",
        "meta_mean_motion": 15.18440767,
        "meta_eccentricity": 0.0002536,
        "meta_inclination": 97.4387,
        "meta_ra_of_asc_node": 69.7218,
        "meta_arg_of_pericenter": 154.8956,
        "meta_mean_anomaly": 205.2402,
        "meta_ephemeris_type": 0,
        "meta_classification_type": "U",
        "meta_norad_cat_id": 66724,
        "meta_element_set_no": 999,
        "meta_rev_at_epoch": 310,
        "meta_bstar": 0.0023487,
        "meta_mean_motion_dot": 0.00048579,
        "meta_mean_motion_ddot": 0,
        "tle_line1": "1 66724U 25276BL  25358.13250463  .00048579  00000+0  23487-2 0  9992",
        "tle_line2": "2 66724  97.4387  69.7218 0002536 154.8956 205.2402 15.18440767  3104"
      },
      "geometry": {
        "type": "Point",
        "coordinates": [
          56.74106301062234,
          60.31663905355674
        ]
      }
    }
  ]
}